[{"OBJECT_NAME":"KUIPER-00159","OBJECT_ID":"2026-030A","EPOCH":"2026-03-09T15:10:26.374944","MEAN_MOTION":15.35788737,"ECCENTRICITY":0.0005012,"INCLINATION":51.8841,"RA_OF_ASC_NODE":219.4438,"ARG_OF_PERICENTER":44.9181,"MEAN_ANOMALY":315.221,"EPHEMERIS_TYPE":0,"CLASSIFICATION_TYPE":"U","NORAD_CAT_ID":67764,"ELEMENT_SET_NO":999,"REV_AT_EPOCH":508,"BSTAR":0.00076096,"MEAN_MOTION_DOT":0.0002662,"MEAN_MOTION_DDOT":0},{"OBJECT_NAME":"KUIPER-00160","OBJECT_ID":"2026-030B","EPOCH":"2026-03-09T18:20:16.137888","MEAN_MOTION":15.35623214,"ECCENTRICITY":0.00052725,"INCLINATION":51.8805,"RA_OF_ASC_NODE":218.8175,"ARG_OF_PERICENTER":54.195,"MEAN_ANOMALY":305.9525,"EPHEMERIS_TYPE":0,"CLASSIFICATION_TYPE":"U","NORAD_CAT_ID":67765,"ELEMENT_SET_NO":999,"REV_AT_EPOCH":510,"BSTAR":0.0010485695,"MEAN_MOTION_DOT":0.00036682,"MEAN_MOTION_DDOT":0},{"OBJECT_NAME":"KUIPER-00177","OBJECT_ID":"2026-030C","EPOCH":"2026-03-10T04:00:01.999584","MEAN_MOTION":15.3425668,"ECCENTRICITY":0.0001716,"INCLINATION":51.8841,"RA_OF_ASC_NODE":216.71,"ARG_OF_PERICENTER":11.0257,"MEAN_ANOMALY":136.6685,"EPHEMERIS_TYPE":0,"CLASSIFICATION_TYPE":"U","NORAD_CAT_ID":67766,"ELEMENT_SET_NO":999,"REV_AT_EPOCH":506,"BSTAR":-0.029417,"MEAN_MOTION_DOT":-0.00908842,"MEAN_MOTION_DDOT":0},{"OBJECT_NAME":"KUIPER-00178","OBJECT_ID":"2026-030D","EPOCH":"2026-03-09T15:15:28.534752","MEAN_MOTION":15.35571325,"ECCENTRICITY":0.0006451,"INCLINATION":51.8828,"RA_OF_ASC_NODE":219.4634,"ARG_OF_PERICENTER":46.2779,"MEAN_ANOMALY":313.8741,"EPHEMERIS_TYPE":0,"CLASSIFICATION_TYPE":"U","NORAD_CAT_ID":67767,"ELEMENT_SET_NO":999,"REV_AT_EPOCH":508,"BSTAR":0.00070511,"MEAN_MOTION_DOT":0.00024464,"MEAN_MOTION_DDOT":0},{"OBJECT_NAME":"KUIPER-00180","OBJECT_ID":"2026-030E","EPOCH":"2026-03-10T04:45:49.077216","MEAN_MOTION":15.31153377,"ECCENTRICITY":0.0014876,"INCLINATION":51.8824,"RA_OF_ASC_NODE":217.2131,"ARG_OF_PERICENTER":72.3443,"MEAN_ANOMALY":287.9165,"EPHEMERIS_TYPE":0,"CLASSIFICATION_TYPE":"U","NORAD_CAT_ID":67768,"ELEMENT_SET_NO":999,"REV_AT_EPOCH":516,"BSTAR":-0.0010857,"MEAN_MOTION_DOT":-0.00033497,"MEAN_MOTION_DDOT":0},{"OBJECT_NAME":"KUIPER-00197","OBJECT_ID":"2026-030F","EPOCH":"2026-03-09T10:14:11.772960","MEAN_MOTION":15.36379862,"ECCENTRICITY":0.00016005,"INCLINATION":51.8831,"RA_OF_ASC_NODE":220.3144,"ARG_OF_PERICENTER":67.2198,"MEAN_ANOMALY":292.8958,"EPHEMERIS_TYPE":0,"CLASSIFICATION_TYPE":"U","NORAD_CAT_ID":67769,"ELEMENT_SET_NO":999,"REV_AT_EPOCH":505,"BSTAR":0.0013525672,"MEAN_MOTION_DOT":0.00048662,"MEAN_MOTION_DDOT":0},{"OBJECT_NAME":"KUIPER-00198","OBJECT_ID":"2026-030G","EPOCH":"2026-03-09T15:03:31.007808","MEAN_MOTION":15.3608915,"ECCENTRICITY":0.0003583,"INCLINATION":51.8806,"RA_OF_ASC_NODE":219.4038,"ARG_OF_PERICENTER":35.8948,"MEAN_ANOMALY":324.2279,"EPHEMERIS_TYPE":0,"CLASSIFICATION_TYPE":"U","NORAD_CAT_ID":67770,"ELEMENT_SET_NO":999,"REV_AT_EPOCH":508,"BSTAR":0.00095567,"MEAN_MOTION_DOT":0.00033885,"MEAN_MOTION_DDOT":0},{"OBJECT_NAME":"KUIPER-00199","OBJECT_ID":"2026-030H","EPOCH":"2026-03-09T20:22:54.746400","MEAN_MOTION":15.34402964,"ECCENTRICITY":0.00108419,"INCLINATION":51.8811,"RA_OF_ASC_NODE":218.632,"ARG_OF_PERICENTER":59.662,"MEAN_ANOMALY":300.5437,"EPHEMERIS_TYPE":0,"CLASSIFICATION_TYPE":"U","NORAD_CAT_ID":67771,"ELEMENT_SET_NO":999,"REV_AT_EPOCH":511,"BSTAR":0.0010339616,"MEAN_MOTION_DOT":0.00034812,"MEAN_MOTION_DDOT":0},{"OBJECT_NAME":"KUIPER-00200","OBJECT_ID":"2026-030J","EPOCH":"2026-03-09T16:14:07.210176","MEAN_MOTION":15.37115765,"ECCENTRICITY":0.00010486,"INCLINATION":51.8819,"RA_OF_ASC_NODE":218.9881,"ARG_OF_PERICENTER":264.9914,"MEAN_ANOMALY":95.0953,"EPHEMERIS_TYPE":0,"CLASSIFICATION_TYPE":"U","NORAD_CAT_ID":67772,"ELEMENT_SET_NO":999,"REV_AT_EPOCH":509,"BSTAR":0.00070618576,"MEAN_MOTION_DOT":0.00025755,"MEAN_MOTION_DDOT":0},{"OBJECT_NAME":"KUIPER-00203","OBJECT_ID":"2026-030K","EPOCH":"2026-03-10T04:00:01.999584","MEAN_MOTION":15.11881087,"ECCENTRICITY":0.0011616,"INCLINATION":51.8866,"RA_OF_ASC_NODE":217.8901,"ARG_OF_PERICENTER":62.6514,"MEAN_ANOMALY":181.7427,"EPHEMERIS_TYPE":0,"CLASSIFICATION_TYPE":"U","NORAD_CAT_ID":67773,"ELEMENT_SET_NO":999,"REV_AT_EPOCH":372,"BSTAR":-0.1268,"MEAN_MOTION_DOT":-0.01986682,"MEAN_MOTION_DDOT":0},{"OBJECT_NAME":"KUIPER-00205","OBJECT_ID":"2026-030L","EPOCH":"2026-03-10T03:25:30.435168","MEAN_MOTION":15.36475316,"ECCENTRICITY":0.0003307,"INCLINATION":51.8812,"RA_OF_ASC_NODE":216.859,"ARG_OF_PERICENTER":22.604,"MEAN_ANOMALY":337.5092,"EPHEMERIS_TYPE":0,"CLASSIFICATION_TYPE":"U","NORAD_CAT_ID":67774,"ELEMENT_SET_NO":999,"REV_AT_EPOCH":516,"BSTAR":0.0013113,"MEAN_MOTION_DOT":0.00047309,"MEAN_MOTION_DDOT":0},{"OBJECT_NAME":"KUIPER-00208","OBJECT_ID":"2026-030M","EPOCH":"2026-03-09T16:08:08.024640","MEAN_MOTION":15.32208734,"ECCENTRICITY":0.00155248,"INCLINATION":51.8846,"RA_OF_ASC_NODE":219.6993,"ARG_OF_PERICENTER":57.3146,"MEAN_ANOMALY":302.9333,"EPHEMERIS_TYPE":0,"CLASSIFICATION_TYPE":"U","NORAD_CAT_ID":67775,"ELEMENT_SET_NO":999,"REV_AT_EPOCH":508,"BSTAR":0.0013882708,"MEAN_MOTION_DOT":0.00043852,"MEAN_MOTION_DDOT":0},{"OBJECT_NAME":"KUIPER-00209","OBJECT_ID":"2026-030N","EPOCH":"2026-03-09T14:49:43.575744","MEAN_MOTION":15.3016195,"ECCENTRICITY":0.0012191,"INCLINATION":51.8838,"RA_OF_ASC_NODE":220.0775,"ARG_OF_PERICENTER":59.1967,"MEAN_ANOMALY":301.0215,"EPHEMERIS_TYPE":0,"CLASSIFICATION_TYPE":"U","NORAD_CAT_ID":67776,"ELEMENT_SET_NO":999,"REV_AT_EPOCH":507,"BSTAR":0.0011963,"MEAN_MOTION_DOT":0.00035298,"MEAN_MOTION_DDOT":0},{"OBJECT_NAME":"KUIPER-00213","OBJECT_ID":"2026-030P","EPOCH":"2026-03-10T01:31:03.908352","MEAN_MOTION":15.3272907,"ECCENTRICITY":0.0014849,"INCLINATION":51.882,"RA_OF_ASC_NODE":217.8092,"ARG_OF_PERICENTER":62.8967,"MEAN_ANOMALY":297.3531,"EPHEMERIS_TYPE":0,"CLASSIFICATION_TYPE":"U","NORAD_CAT_ID":67777,"ELEMENT_SET_NO":999,"REV_AT_EPOCH":514,"BSTAR":-0.0028857,"MEAN_MOTION_DOT":-0.00092175,"MEAN_MOTION_DDOT":0},{"OBJECT_NAME":"KUIPER-00214","OBJECT_ID":"2026-030Q","EPOCH":"2026-03-09T17:52:54.023808","MEAN_MOTION":15.36794517,"ECCENTRICITY":3.525e-5,"INCLINATION":51.885,"RA_OF_ASC_NODE":218.7034,"ARG_OF_PERICENTER":289.1658,"MEAN_ANOMALY":70.9291,"EPHEMERIS_TYPE":0,"CLASSIFICATION_TYPE":"U","NORAD_CAT_ID":67778,"ELEMENT_SET_NO":999,"REV_AT_EPOCH":510,"BSTAR":0.00076864759,"MEAN_MOTION_DOT":0.00027783,"MEAN_MOTION_DDOT":0},{"OBJECT_NAME":"KUIPER-00215","OBJECT_ID":"2026-030R","EPOCH":"2026-03-09T17:12:37.719936","MEAN_MOTION":15.34495766,"ECCENTRICITY":0.00103674,"INCLINATION":51.8839,"RA_OF_ASC_NODE":219.2565,"ARG_OF_PERICENTER":59.887,"MEAN_ANOMALY":300.3142,"EPHEMERIS_TYPE":0,"CLASSIFICATION_TYPE":"U","NORAD_CAT_ID":67779,"ELEMENT_SET_NO":999,"REV_AT_EPOCH":509,"BSTAR":0.00089268606,"MEAN_MOTION_DOT":0.00030069,"MEAN_MOTION_DDOT":0},{"OBJECT_NAME":"KUIPER-00218","OBJECT_ID":"2026-030S","EPOCH":"2026-03-09T15:22:12.930816","MEAN_MOTION":15.35202151,"ECCENTRICITY":0.0006939,"INCLINATION":51.8829,"RA_OF_ASC_NODE":219.4934,"ARG_OF_PERICENTER":50.9637,"MEAN_ANOMALY":309.1966,"EPHEMERIS_TYPE":0,"CLASSIFICATION_TYPE":"U","NORAD_CAT_ID":67780,"ELEMENT_SET_NO":999,"REV_AT_EPOCH":508,"BSTAR":0.00064584,"MEAN_MOTION_DOT":0.00022104,"MEAN_MOTION_DDOT":0}]
